{"type": "FeatureCollection", "features": [ {"type": "Feature", "properties": {"norad_id": 31311, "name": "FENGYUN 1C DEB", "group": "fengyun-1c-debris", "lat": -8.010952621454818, "lon": 70.94346146232373, "alt_km": 796.4422052178807, "timestamp": "2025-12-14T07:33:19.759772+00:00", "meta": {"OBJECT_NAME": "FENGYUN 1C DEB", "OBJECT_ID": "1999-025BPP", "EPOCH": "2025-12-13T17:03:36.902592", "MEAN_MOTION": 14.29759308, "ECCENTRICITY": 0.00185608, "INCLINATION": 98.8523, "RA_OF_ASC_NODE": 69.073, "ARG_OF_PERICENTER": 83.9747, "MEAN_ANOMALY": 41.2961, "EPHEMERIS_TYPE": 0, "CLASSIFICATION_TYPE": "U", "NORAD_CAT_ID": 31311, "ELEMENT_SET_NO": 999, "REV_AT_EPOCH": 96235, "BSTAR": 0.0021483581, "MEAN_MOTION_DOT": 5.484e-05, "MEAN_MOTION_DDOT": 0}, "tle": {"line1": "1 31311U 99025BPP 25347.71084378  .00005484  00000+0  21484-2 0  9994", "line2": "2 31311  98.8523  69.0730 0018560  83.9747  41.2961 14.29759308962355"}}, "geometry": {"type": "Point", "coordinates": [70.94346146232373, -8.010952621454818]}}, {"type": "Feature", "properties": {"norad_id": 31312, "name": "FENGYUN 1C DEB", "group": "fengyun-1c-debris", "lat": -6.733361548527201, "lon": -25.007974417792173, "alt_km": 916.1786413932141, "timestamp": "2025-12-14T07:33:19.759783+00:00", "meta": {"OBJECT_NAME": "FENGYUN 1C DEB", "OBJECT_ID": "1999-025BPQ", "EPOCH": "2025-12-13T11:38:40.786656", "MEAN_MOTION": 14.00922975, "ECCENTRICITY": 0.00580411, "INCLINATION": 98.8596, "RA_OF_ASC_NODE": 333.1323, "ARG_OF_PERICENTER": 234.1112, "MEAN_ANOMALY": 256.8946, "EPHEMERIS_TYPE": 0, "CLASSIFICATION_TYPE": "U", "NORAD_CAT_ID": 31312, "ELEMENT_SET_NO": 999, "REV_AT_EPOCH": 95156, "BSTAR": 0.00074973161, "MEAN_MOTION_DOT": 1.095e-05, "MEAN_MOTION_DDOT": 0}, "tle": {"line1": "1 31312U 99025BPQ 25347.48519429  .00001095  00000+0  74973-3 0  9995", "line2": "2 31312  98.8596 333.1323 0058041 234.1112 256.8946 14.00922975951562"}}, "geometry": {"type": "Point", "coordinates": [-25.007974417792173, -6.733361548527201]}}, {"type": "Feature", "properties": {"norad_id": 31313, "name": "FENGYUN 1C DEB", "group": "fengyun-1c-debris", "lat": 20.97490958584263, "lon": 75.72301435238029, "alt_km": 786.9302606345382, "timestamp": "2025-12-14T07:33:19.759793+00:00", "meta": {"OBJECT_NAME": "FENGYUN 1C DEB", "OBJECT_ID": "1999-025BPR", "EPOCH": "2025-12-13T00:25:13.451520", "MEAN_MOTION": 14.22274667, "ECCENTRICITY": 0.00446352, "INCLINATION": 99.0151, "RA_OF_ASC_NODE": 250.9078, "ARG_OF_PERICENTER": 180.3332, "MEAN_ANOMALY": 179.7822, "EPHEMERIS_TYPE": 0, "CLASSIFICATION_TYPE": "U", "NORAD_CAT_ID": 31313, "ELEMENT_SET_NO": 999, "REV_AT_EPOCH": 97066, "BSTAR": 0.00043497001, "MEAN_MOTION_DOT": 9.3e-06, "MEAN_MOTION_DDOT": 0}, "tle": {"line1": "1 31313U 99025BPR 25347.01751680  .00000930  00000+0  43497-3 0  9996", "line2": "2 31313  99.0151 250.9078 0044635 180.3332 179.7822 14.22274667970666"}}, "geometry": {"type": "Point", "coordinates": [75.72301435238029, 20.97490958584263]}}, {"type": "Feature", "properties": {"norad_id": 31314, "name": "FENGYUN 1C DEB", "group": "fengyun-1c-debris", "lat": 67.60916005734802, "lon": -175.57353559988115, "alt_km": 896.3256029171671, "timestamp": "2025-12-14T07:33:19.759804+00:00", "meta": {"OBJECT_NAME": "FENGYUN 1C DEB", "OBJECT_ID": "1999-025BPS", "EPOCH": "2025-12-13T05:23:45.501216", "MEAN_MOTION": 14.04922929, "ECCENTRICITY": 0.00788522, "INCLINATION": 98.8216, "RA_OF_ASC_NODE": 341.2227, "ARG_OF_PERICENTER": 356.0762, "MEAN_ANOMALY": 3.9779, "EPHEMERIS_TYPE": 0, "CLASSIFICATION_TYPE": "U", "NORAD_CAT_ID": 31314, "ELEMENT_SET_NO": 999, "REV_AT_EPOCH": 60821, "BSTAR": 0.00042724361, "MEAN_MOTION_DOT": 6.63e-06, "MEAN_MOTION_DDOT": 0}, "tle": {"line1": "1 31314U 99025BPS 25347.22483219  .00000663  00000+0  42724-3 0  9995", "line2": "2 31314  98.8216 341.2227 0078852 356.0762   3.9779 14.04922929608212"}}, "geometry": {"type": "Point", "coordinates": [-175.57353559988115, 67.60916005734802]}}, {"type": "Feature", "properties": {"norad_id": 31319, "name": "FENGYUN 1C DEB", "group": "fengyun-1c-debris", "lat": 9.36795673671986, "lon": 68.48233822089396, "alt_km": 973.0131201040367, "timestamp": "2025-12-14T07:33:19.759814+00:00", "meta": {"OBJECT_NAME": "FENGYUN 1C DEB", "OBJECT_ID": "1999-025BPX", "EPOCH": "2025-12-13T12:23:56.642784", "MEAN_MOTION": 13.75828624, "ECCENTRICITY": 0.01706449, "INCLINATION": 98.8309, "RA_OF_ASC_NODE": 246.2726, "ARG_OF_PERICENTER": 84.8724, "MEAN_ANOMALY": 92.3174, "EPHEMERIS_TYPE": 0, "CLASSIFICATION_TYPE": "U", "NORAD_CAT_ID": 31319, "ELEMENT_SET_NO": 999, "REV_AT_EPOCH": 93698, "BSTAR": 0.00022698552, "MEAN_MOTION_DOT": 2.06e-06, "MEAN_MOTION_DDOT": 0}, "tle": {"line1": "1 31319U 99025BPX 25347.51662781  .00000206  00000+0  22699-3 0  9997", "line2": "2 31319  98.8309 246.2726 0170644  84.8724  92.3174 13.75828624936987"}}, "geometry": {"type": "Point", "coordinates": [68.48233822089396, 9.36795673671986]}}, {"type": "Feature", "properties": {"norad_id": 31321, "name": "FENGYUN 1C DEB", "group": "fengyun-1c-debris", "lat": -43.638631038857774, "lon": 75.57823413700342, "alt_km": 870.0856957488104, "timestamp": "2025-12-14T07:33:19.759824+00:00", "meta": {"OBJECT_NAME": "FENGYUN 1C DEB", "OBJECT_ID": "1999-025BPZ", "EPOCH": "2025-12-12T23:29:40.543008", "MEAN_MOTION": 14.13823168, "ECCENTRICITY": 0.00298946, "INCLINATION": 98.7343, "RA_OF_ASC_NODE": 65.8437, "ARG_OF_PERICENTER": 176.9467, "MEAN_ANOMALY": 183.1894, "EPHEMERIS_TYPE": 0, "CLASSIFICATION_TYPE": "U", "NORAD_CAT_ID": 31321, "ELEMENT_SET_NO": 999, "REV_AT_EPOCH": 57387, "BSTAR": 0.00022679521, "MEAN_MOTION_DOT": 3.88e-06, "MEAN_MOTION_DDOT": 0}, "tle": {"line1": "1 31321U 99025BPZ 25346.97894147  .00000388  00000+0  22680-3 0  9993", "line2": "2 31321  98.7343  65.8437 0029894 176.9467 183.1894 14.13823168573872"}}, "geometry": {"type": "Point", "coordinates": [75.57823413700342, -43.638631038857774]}}, {"type": "Feature", "properties": {"norad_id": 31322, "name": "FENGYUN 1C DEB", "group": "fengyun-1c-debris", "lat": 55.949069263944224, "lon": -115.17290541715217, "alt_km": 1059.8968610983638, "timestamp": "2025-12-14T07:33:19.759835+00:00", "meta": {"OBJECT_NAME": "FENGYUN 1C DEB", "OBJECT_ID": "1999-025BQA", "EPOCH": "2025-12-08T23:52:58.153728", "MEAN_MOTION": 13.72994467, "ECCENTRICITY": 0.0238726, "INCLINATION": 98.5739, "RA_OF_ASC_NODE": 47.1579, "ARG_OF_PERICENTER": 20.2617, "MEAN_ANOMALY": 100.4309, "EPHEMERIS_TYPE": 0, "CLASSIFICATION_TYPE": "U", "NORAD_CAT_ID": 31322, "ELEMENT_SET_NO": 999, "REV_AT_EPOCH": 62224, "BSTAR": 0.00026306, "MEAN_MOTION_DOT": 2.61e-06, "MEAN_MOTION_DDOT": 0}, "tle": {"line1": "1 31322U 99025BQA 25342.99511752  .00000261  00000+0  26306-3 0  9999", "line2": "2 31322  98.5739  47.1579 0238726  20.2617 100.4309 13.72994467622248"}}, "geometry": {"type": "Point", "coordinates": [-115.17290541715217, 55.949069263944224]}}, {"type": "Feature", "properties": {"norad_id": 31323, "name": "FENGYUN 1C DEB", "group": "fengyun-1c-debris", "lat": -13.373065633253837, "lon": 29.169318872565423, "alt_km": 803.663980668156, "timestamp": "2025-12-14T07:33:19.759845+00:00", "meta": {"OBJECT_NAME": "FENGYUN 1C DEB", "OBJECT_ID": "1999-025BQB", "EPOCH": "2025-12-12T20:17:42.698976", "MEAN_MOTION": 14.27591812, "ECCENTRICITY": 0.00313733, "INCLINATION": 99.4214, "RA_OF_ASC_NODE": 25.3246, "ARG_OF_PERICENTER": 79.5452, "MEAN_ANOMALY": 280.9259, "EPHEMERIS_TYPE": 0, "CLASSIFICATION_TYPE": "U", "NORAD_CAT_ID": 31323, "ELEMENT_SET_NO": 999, "REV_AT_EPOCH": 63982, "BSTAR": 0.0021568292, "MEAN_MOTION_DOT": 5.29e-05, "MEAN_MOTION_DDOT": 0}, "tle": {"line1": "1 31323U 99025BQB 25346.84563309  .00005290  00000+0  21568-2 0  9994", "line2": "2 31323  99.4214  25.3246 0031373  79.5452 280.9259 14.27591812639827"}}, "geometry": {"type": "Point", "coordinates": [29.169318872565423, -13.373065633253837]}}, {"type": "Feature", "properties": {"norad_id": 31324, "name": "FENGYUN 1C DEB", "group": "fengyun-1c-debris", "lat": 23.1758542844231, "lon": -94.12098382601049, "alt_km": 838.7480870020463, "timestamp": "2025-12-14T07:33:19.759855+00:00", "meta": {"OBJECT_NAME": "FENGYUN 1C DEB", "OBJECT_ID": "1999-025BQC", "EPOCH": "2025-12-10T13:28:55.879104", "MEAN_MOTION": 14.14692214, "ECCENTRICITY": 0.0049382, "INCLINATION": 99.1235, "RA_OF_ASC_NODE": 265.99, "ARG_OF_PERICENTER": 310.451, "MEAN_ANOMALY": 49.2361, "EPHEMERIS_TYPE": 0, "CLASSIFICATION_TYPE": "U", "NORAD_CAT_ID": 31324, "ELEMENT_SET_NO": 999, "REV_AT_EPOCH": 96455, "BSTAR": 0.00029196, "MEAN_MOTION_DOT": 5.21e-06, "MEAN_MOTION_DDOT": 0}, "tle": {"line1": "1 31324U 99025BQC 25344.56175786  .00000521  00000+0  29196-3 0  9998", "line2": "2 31324  99.1235 265.9900 0049382 310.4510  49.2361 14.14692214964553"}}, "geometry": {"type": "Point", "coordinates": [-94.12098382601049, 23.1758542844231]}}, {"type": "Feature", "properties": {"norad_id": 31325, "name": "FENGYUN 1C DEB", "group": "fengyun-1c-debris", "lat": -51.717562094116026, "lon": 94.06086442109176, "alt_km": 843.6099485810028, "timestamp": "2025-12-14T07:33:19.759865+00:00", "meta": {"OBJECT_NAME": "FENGYUN 1C DEB", "OBJECT_ID": "1999-025BQD", "EPOCH": "2025-12-12T11:44:25.211616", "MEAN_MOTION": 14.16884975, "ECCENTRICITY": 0.00720609, "INCLINATION": 98.9911, "RA_OF_ASC_NODE": 80.6439, "ARG_OF_PERICENTER": 221.2361, "MEAN_ANOMALY": 138.3357, "EPHEMERIS_TYPE": 0, "CLASSIFICATION_TYPE": "U", "NORAD_CAT_ID": 31325, "ELEMENT_SET_NO": 999, "REV_AT_EPOCH": 59774, "BSTAR": 0.0033364184, "MEAN_MOTION_DOT": 6.822e-05, "MEAN_MOTION_DDOT": 0}, "tle": {"line1": "1 31325U 99025BQD 25346.48918069  .00006822  00000+0  33364-2 0  9992", "line2": "2 31325  98.9911  80.6439 0072060 221.2361 138.3357 14.16884975597740"}}, "geometry": {"type": "Point", "coordinates": [94.06086442109176, -51.717562094116026]}}]}